[Satellite]
VERSION=1.1
NAME=UK-DMC 2
NICKNAME=UK-DMC 2
TLE1=1 35683U 09041C   15055.41269189  .00000460  00000-0  83482-4 0  9994
TLE2=2 35683  97.9431 309.5491 0001268  74.6188 285.5135 14.70599765298979
